{
  "type": "FeatureCollection",
  "features": [
    {
      "type": "Feature",
      "properties": {
        "norad_id": 41890,
        "name": "CYGFM07",
        "group": "weather",
        "lat": 33.05405012048955,
        "lon": 65.54961339058761,
        "alt_km": 415.7969481371729,
        "timestamp": "2025-12-22T23:36:20.342228+00:00",
        "meta_object_name": "CYGFM07",
        "meta_object_id": "2016-078G",
        "meta_epoch": "2025-12-22T07:41:22.754400",
        "meta_mean_motion": 15.50386414,
        "meta_eccentricity": 0.00098473,
        "meta_inclination": 34.9484,
        "meta_ra_of_asc_node": 318.6199,
        "meta_arg_of_pericenter": 296.6593,
        "meta_mean_anomaly": 63.312,
        "meta_ephemeris_type": 0,
        "meta_classification_type": "U",
        "meta_norad_cat_id": 41890,
        "meta_element_set_no": 999,
        "meta_rev_at_epoch": 50144,
        "meta_bstar": 0.00041229816,
        "meta_mean_motion_dot": 0.00024237,
        "meta_mean_motion_ddot": 0,
        "tle_line1": "1 41890U 16078G   25356.32040225  .00024237  00000+0  41230-3 0  9993",
        "tle_line2": "2 41890  34.9484 318.6199 0009847 296.6593  63.3120 15.50386414501447"
      },
      "geometry": {
        "type": "Point",
        "coordinates": [
          65.54961339058761,
          33.05405012048955
        ]
      }
    },
    {
      "type": "Feature",
      "properties": {
        "norad_id": 41891,
        "name": "CYGFM03",
        "group": "weather",
        "lat": -30.186475970784794,
        "lon": -100.22201365636349,
        "alt_km": 411.1902378329469,
        "timestamp": "2025-12-22T23:36:20.342238+00:00",
        "meta_object_name": "CYGFM03",
        "meta_object_id": "2016-078H",
        "meta_epoch": "2025-12-22T06:52:08.029920",
        "meta_mean_motion": 15.50279642,
        "meta_eccentricity": 0.00095974,
        "meta_inclination": 34.9439,
        "meta_ra_of_asc_node": 320.7688,
        "meta_arg_of_pericenter": 284.1615,
        "meta_mean_anomaly": 75.804,
        "meta_ephemeris_type": 0,
        "meta_classification_type": "U",
        "meta_norad_cat_id": 41891,
        "meta_element_set_no": 999,
        "meta_rev_at_epoch": 50141,
        "meta_bstar": 0.0004120085,
        "meta_mean_motion_dot": 0.00024126,
        "meta_mean_motion_ddot": 0,
        "tle_line1": "1 41891U 16078H   25356.28620405  .00024126  00000+0  41201-3 0  9998",
        "tle_line2": "2 41891  34.9439 320.7688 0009597 284.1615  75.8040 15.50279642501414"
      },
      "geometry": {
        "type": "Point",
        "coordinates": [
          -100.22201365636349,
          -30.186475970784794
        ]
      }
    },
    {
      "type": "Feature",
      "properties": {
        "norad_id": 43010,
        "name": "FENGYUN 3D",
        "group": "weather",
        "lat": 45.99162961628388,
        "lon": 152.8796779664721,
        "alt_km": 821.3983395082605,
        "timestamp": "2025-12-22T23:36:20.342249+00:00",
        "meta_object_name": "FENGYUN 3D",
        "meta_object_id": "2017-072A",
        "meta_epoch": "2025-12-22T14:31:23.256192",
        "meta_mean_motion": 14.19687066,
        "meta_eccentricity": 0.00014153,
        "meta_inclination": 98.9903,
        "meta_ra_of_asc_node": 323.0629,
        "meta_arg_of_pericenter": 154.2824,
        "meta_mean_anomaly": 205.8422,
        "meta_ephemeris_type": 0,
        "meta_classification_type": "U",
        "meta_norad_cat_id": 43010,
        "meta_element_set_no": 999,
        "meta_rev_at_epoch": 41993,
        "meta_bstar": 0.00012497345,
        "meta_mean_motion_dot": 2.18e-06,
        "meta_mean_motion_ddot": 0,
        "tle_line1": "1 43010U 17072A   25356.60513028  .00000218  00000+0  12497-3 0  9997",
        "tle_line2": "2 43010  98.9903 323.0629 0001415 154.2824 205.8422 14.19687066419937"
      },
      "geometry": {
        "type": "Point",
        "coordinates": [
          152.8796779664721,
          45.99162961628388
        ]
      }
    },
    {
      "type": "Feature",
      "properties": {
        "norad_id": 43013,
        "name": "NOAA 20 (JPSS-1)",
        "group": "weather",
        "lat": -77.13029156497241,
        "lon": -24.378898814584545,
        "alt_km": 835.6111616849057,
        "timestamp": "2025-12-22T23:36:20.342260+00:00",
        "meta_object_name": "NOAA 20 (JPSS-1)",
        "meta_object_id": "2017-073A",
        "meta_epoch": "2025-12-22T13:50:04.924896",
        "meta_mean_motion": 14.19528174,
        "meta_eccentricity": 0.00021195,
        "meta_inclination": 98.7613,
        "meta_ra_of_asc_node": 292.7661,
        "meta_arg_of_pericenter": 73.0984,
        "meta_mean_anomaly": 287.0424,
        "meta_ephemeris_type": 0,
        "meta_classification_type": "U",
        "meta_norad_cat_id": 43013,
        "meta_element_set_no": 999,
        "meta_rev_at_epoch": 41941,
        "meta_bstar": 6.0053278e-05,
        "meta_mean_motion_dot": 8.3e-07,
        "meta_mean_motion_ddot": 0,
        "tle_line1": "1 43013U 17073A   25356.57644589  .00000083  00000+0  60053-4 0  9996",
        "tle_line2": "2 43013  98.7613 292.7661 0002119  73.0984 287.0424 14.19528174419412"
      },
      "geometry": {
        "type": "Point",
        "coordinates": [
          -24.378898814584545,
          -77.13029156497241
        ]
      }
    },
    {
      "type": "Feature",
      "properties": {
        "norad_id": 43226,
        "name": "GOES 17",
        "group": "weather",
        "lat": -0.48649137739774573,
        "lon": -3.6110903629827416,
        "alt_km": 35782.90201708312,
        "timestamp": "2025-12-22T23:36:20.342274+00:00",
        "meta_object_name": "GOES 17",
        "meta_object_id": "2018-022A",
        "meta_epoch": "2025-12-22T11:01:35.410368",
        "meta_mean_motion": 1.00273476,
        "meta_eccentricity": 0.00030248,
        "meta_inclination": 0.4812,
        "meta_ra_of_asc_node": 89.105,
        "meta_arg_of_pericenter": 189.9361,
        "meta_mean_anomaly": 248.1131,
        "meta_ephemeris_type": 0,
        "meta_classification_type": "U",
        "meta_norad_cat_id": 43226,
        "meta_element_set_no": 999,
        "meta_rev_at_epoch": 2865,
        "meta_bstar": 0,
        "meta_mean_motion_dot": -1.61e-06,
        "meta_mean_motion_ddot": 0,
        "tle_line1": "1 43226U 18022A   25356.45943762 -.00000161  00000+0  00000+0 0  9998",
        "tle_line2": "2 43226   0.4812  89.1050 0003024 189.9361 248.1131  1.00273476 28654"
      },
      "geometry": {
        "type": "Point",
        "coordinates": [
          -3.6110903629827416,
          -0.48649137739774573
        ]
      }
    },
    {
      "type": "Feature",
      "properties": {
        "norad_id": 43491,
        "name": "FENGYUN 2H",
        "group": "weather",
        "lat": 2.5728810745581416,
        "lon": 165.17482561038585,
        "alt_km": 35784.65238878328,
        "timestamp": "2025-12-22T23:36:20.342294+00:00",
        "meta_object_name": "FENGYUN 2H",
        "meta_object_id": "2018-050A",
        "meta_epoch": "2025-12-22T13:32:37.248864",
        "meta_mean_motion": 1.00271007,
        "meta_eccentricity": 0.00023655,
        "meta_inclination": 2.5747,
        "meta_ra_of_asc_node": 81.2262,
        "meta_arg_of_pericenter": 166.1147,
        "meta_mean_anomaly": 126.5288,
        "meta_ephemeris_type": 0,
        "meta_classification_type": "U",
        "meta_norad_cat_id": 43491,
        "meta_element_set_no": 999,
        "meta_rev_at_epoch": 2766,
        "meta_bstar": 0,
        "meta_mean_motion_dot": -1.09e-06,
        "meta_mean_motion_ddot": 0,
        "tle_line1": "1 43491U 18050A   25356.56432001 -.00000109  00000+0  00000+0 0  9996",
        "tle_line2": "2 43491   2.5747  81.2262 0002365 166.1147 126.5288  1.00271007 27662"
      },
      "geometry": {
        "type": "Point",
        "coordinates": [
          165.17482561038585,
          2.5728810745581416
        ]
      }
    },
    {
      "type": "Feature",
      "properties": {
        "norad_id": 43689,
        "name": "METOP-C",
        "group": "weather",
        "lat": 46.60740337391113,
        "lon": -116.0931632656111,
        "alt_km": 816.4042504942781,
        "timestamp": "2025-12-22T23:36:20.342306+00:00",
        "meta_object_name": "METOP-C",
        "meta_object_id": "2018-087A",
        "meta_epoch": "2025-12-22T12:50:52.899072",
        "meta_mean_motion": 14.21488011,
        "meta_eccentricity": 7.696e-05,
        "meta_inclination": 98.6915,
        "meta_ra_of_asc_node": 54.1542,
        "meta_arg_of_pericenter": 21.4234,
        "meta_mean_anomaly": 338.6976,
        "meta_ephemeris_type": 0,
        "meta_classification_type": "U",
        "meta_norad_cat_id": 43689,
        "meta_element_set_no": 999,
        "meta_rev_at_epoch": 36973,
        "meta_bstar": 8.1090432e-05,
        "meta_mean_motion_dot": 1.34e-06,
        "meta_mean_motion_ddot": 0,
        "tle_line1": "1 43689U 18087A   25356.53533448  .00000134  00000+0  81090-4 0  9999",
        "tle_line2": "2 43689  98.6915  54.1542 0000769  21.4234 338.6976 14.21488011369739"
      },
      "geometry": {
        "type": "Point",
        "coordinates": [
          -116.0931632656111,
          46.60740337391113
        ]
      }
    }
  ]
}